[
    {
        "Altitude(m)": 702793.196427675,
        "Argument of Periapsis(deg)": 0.009112096949301655,
        "Eccentricity": 0.0,
        "Inclination(deg)": 45.0,
        "Latitude(deg)": 16.408057331548395,
        "Longitude(deg)": 177.3562884410891,
        "Mean Anomaly(deg)": 156.49927331798463,
        "RAAN(deg)": 114.99139844683344,
        "Satellite Name": "Constellation 1 515",
        "Satellite Number": 515,
        "Semi-Major Axis(m)": 7083131.272910544,
        "Time(s)": 152
    },
    {
        "Altitude(m)": 702791.2546597734,
        "Argument of Periapsis(deg)": 0.009172044955547059,
        "Eccentricity": 0.0,
        "Inclination(deg)": 45.0,
        "Latitude(deg)": 16.366748043981925,
        "Longitude(deg)": 177.39873571844652,
        "Mean Anomaly(deg)": 156.55997445823456,
        "RAAN(deg)": 114.99134185766786,
        "Satellite Name": "Constellation 1 515",
        "Satellite Number": 515,
        "Semi-Major Axis(m)": 7083131.272910544,
        "Time(s)": 153
    },
    {
        "Altitude(m)": 702789.3293857268,
        "Argument of Periapsis(deg)": 0.009231992961792466,
        "Eccentricity": 0.0,
        "Inclination(deg)": 45.0,
        "Latitude(deg)": 16.32542833658506,
        "Longitude(deg)": 177.4411633874094,
        "Mean Anomaly(deg)": 156.62067559848447,
        "RAAN(deg)": 114.9912852685023,
        "Satellite Name": "Constellation 1 515",
        "Satellite Number": 515,
        "Semi-Major Axis(m)": 7083131.272910544,
        "Time(s)": 154
    },
    {
        "Altitude(m)": 702787.420631719,
        "Argument of Periapsis(deg)": 0.009291940968037872,
        "Eccentricity": 0.0,
        "Inclination(deg)": 45.0,
        "Latitude(deg)": 16.2840982414298,
        "Longitude(deg)": 177.48357150345134,
        "Mean Anomaly(deg)": 156.68137673873437,
        "RAAN(deg)": 114.99122867933671,
        "Satellite Name": "Constellation 1 515",
        "Satellite Number": 515,
        "Semi-Major Axis(m)": 7083131.272910544,
        "Time(s)": 155
    },
    {
        "Altitude(m)": 702785.5284238915,
        "Argument of Periapsis(deg)": 0.009351888974283276,
        "Eccentricity": 0.0,
        "Inclination(deg)": 45.0,
        "Latitude(deg)": 16.2427577905502,
        "Longitude(deg)": 177.52595995391783,
        "Mean Anomaly(deg)": 156.74207787898422,
        "RAAN(deg)": 114.99117209017115,
        "Satellite Name": "Constellation 1 515",
        "Satellite Number": 515,
        "Semi-Major Axis(m)": 7083131.272910544,
        "Time(s)": 156
    },
    {
        "Altitude(m)": 702783.6527882962,
        "Argument of Periapsis(deg)": 0.00941183698052868,
        "Eccentricity": 0.0,
        "Inclination(deg)": 45.0,
        "Latitude(deg)": 16.201407015941033,
        "Longitude(deg)": 177.5683291304145,
        "Mean Anomaly(deg)": 156.80277901923415,
        "RAAN(deg)": 114.9911155010056,
        "Satellite Name": "Constellation 1 515",
        "Satellite Number": 515,
        "Semi-Major Axis(m)": 7083131.272910544,
        "Time(s)": 157
    },
    {
        "Altitude(m)": 702781.7937509315,
        "Argument of Periapsis(deg)": 0.009471784986774088,
        "Eccentricity": 0.0,
        "Inclination(deg)": 45.0,
        "Latitude(deg)": 16.160045949560047,
        "Longitude(deg)": 177.6106789202246,
        "Mean Anomaly(deg)": 156.86348015948403,
        "RAAN(deg)": 114.99105891184001,
        "Satellite Name": "Constellation 1 515",
        "Satellite Number": 515,
        "Semi-Major Axis(m)": 7083131.272910544,
        "Time(s)": 158
    },
    {
        "Altitude(m)": 702779.9513377257,
        "Argument of Periapsis(deg)": 0.009531732993019492,
        "Eccentricity": 0.0,
        "Inclination(deg)": 45.0,
        "Latitude(deg)": 16.118674623326505,
        "Longitude(deg)": 177.65300937869762,
        "Mean Anomaly(deg)": 156.92418129973396,
        "RAAN(deg)": 114.99100232267445,
        "Satellite Name": "Constellation 1 515",
        "Satellite Number": 515,
        "Semi-Major Axis(m)": 7083131.272910544,
        "Time(s)": 159
    },
    {
        "Altitude(m)": 702778.1255745353,
        "Argument of Periapsis(deg)": 0.009591680999264898,
        "Eccentricity": 0.0,
        "Inclination(deg)": 45.0,
        "Latitude(deg)": 16.07729306912193,
        "Longitude(deg)": 177.695320561152,
        "Mean Anomaly(deg)": 156.98488243998378,
        "RAAN(deg)": 114.99094573350887,
        "Satellite Name": "Constellation 1 515",
        "Satellite Number": 515,
        "Semi-Major Axis(m)": 7083131.272910544,
        "Time(s)": 160
    },
    {
        "Altitude(m)": 702776.316487155,
        "Argument of Periapsis(deg)": 0.009651629005510304,
        "Eccentricity": 0.0,
        "Inclination(deg)": 45.0,
        "Latitude(deg)": 16.03590131878992,
        "Longitude(deg)": 177.73761252287517,
        "Mean Anomaly(deg)": 157.04558358023377,
        "RAAN(deg)": 114.99088914434331,
        "Satellite Name": "Constellation 1 515",
        "Satellite Number": 515,
        "Semi-Major Axis(m)": 7083131.272910544,
        "Time(s)": 161
    },
    {
        "Altitude(m)": 702774.5241013087,
        "Argument of Periapsis(deg)": 0.00971157701175571,
        "Eccentricity": 0.0,
        "Inclination(deg)": 45.0,
        "Latitude(deg)": 15.994499404136537,
        "Longitude(deg)": 177.77988531912345,
        "Mean Anomaly(deg)": 157.10628472048361,
        "RAAN(deg)": 114.99083255517772,
        "Satellite Name": "Constellation 1 515",
        "Satellite Number": 515,
        "Semi-Major Axis(m)": 7083131.272910544,
        "Time(s)": 162
    },
    {
        "Altitude(m)": 702772.7484426589,
        "Argument of Periapsis(deg)": 0.009771525018001118,
        "Eccentricity": 0.0,
        "Inclination(deg)": 45.0,
        "Latitude(deg)": 15.95308735693043,
        "Longitude(deg)": 177.8221388370254,
        "Mean Anomaly(deg)": 157.16698586073358,
        "RAAN(deg)": 114.99077596601217,
        "Satellite Name": "Constellation 1 515",
        "Satellite Number": 515,
        "Semi-Major Axis(m)": 7083131.272910544,
        "Time(s)": 163
    },
    {
        "Altitude(m)": 702770.9895367884,
        "Argument of Periapsis(deg)": 0.00983147302424652,
        "Eccentricity": 0.0,
        "Inclination(deg)": 45.0,
        "Latitude(deg)": 15.91166520890214,
        "Longitude(deg)": 177.86437346796941,
        "Mean Anomaly(deg)": 157.22768700098348,
        "RAAN(deg)": 114.9907193768466,
        "Satellite Name": "Constellation 1 515",
        "Satellite Number": 515,
        "Semi-Major Axis(m)": 7083131.272910544,
        "Time(s)": 164
    },
    {
        "Altitude(m)": 702769.2474092235,
        "Argument of Periapsis(deg)": 0.009891421030491928,
        "Eccentricity": 0.0,
        "Inclination(deg)": 45.0,
        "Latitude(deg)": 15.870232991745528,
        "Longitude(deg)": 177.9065890990221,
        "Mean Anomaly(deg)": 157.28838814123333,
        "RAAN(deg)": 114.99066278768102,
        "Satellite Name": "Constellation 1 515",
        "Satellite Number": 515,
        "Semi-Major Axis(m)": 7083131.272910544,
        "Time(s)": 165
    },
    {
        "Altitude(m)": 702767.5220854152,
        "Argument of Periapsis(deg)": 0.009951369036737332,
        "Eccentricity": 0.0,
        "Inclination(deg)": 45.0,
        "Latitude(deg)": 15.828790737116986,
        "Longitude(deg)": 177.94878578531603,
        "Mean Anomaly(deg)": 157.34908928148326,
        "RAAN(deg)": 114.99060619851547,
        "Satellite Name": "Constellation 1 515",
        "Satellite Number": 515,
        "Semi-Major Axis(m)": 7083131.272910544,
        "Time(s)": 166
    },
    {
        "Altitude(m)": 702765.8135907516,
        "Argument of Periapsis(deg)": 0.010011317042982738,
        "Eccentricity": 0.0,
        "Inclination(deg)": 45.0,
        "Latitude(deg)": 15.78733847663596,
        "Longitude(deg)": 177.99096358195283,
        "Mean Anomaly(deg)": 157.4097904217331,
        "RAAN(deg)": 114.99054960934987,
        "Satellite Name": "Constellation 1 515",
        "Satellite Number": 515,
        "Semi-Major Axis(m)": 7083131.272910544,
        "Time(s)": 167
    },
    {
        "Altitude(m)": 702764.1219505453,
        "Argument of Periapsis(deg)": 0.010071265049228144,
        "Eccentricity": 0.0,
        "Inclination(deg)": 45.0,
        "Latitude(deg)": 15.745876241884721,
        "Longitude(deg)": 178.03312254400333,
        "Mean Anomaly(deg)": 157.47049156198307,
        "RAAN(deg)": 114.99049302018432,
        "Satellite Name": "Constellation 1 515",
        "Satellite Number": 515,
        "Semi-Major Axis(m)": 7083131.272910544,
        "Time(s)": 168
    },
    {
        "Altitude(m)": 702762.44719005,
        "Argument of Periapsis(deg)": 0.01013121305547355,
        "Eccentricity": 0.0,
        "Inclination(deg)": 45.0,
        "Latitude(deg)": 15.704404064408799,
        "Longitude(deg)": 178.07526272650728,
        "Mean Anomaly(deg)": 157.53119270223294,
        "RAAN(deg)": 114.99043643101876,
        "Satellite Name": "Constellation 1 515",
        "Satellite Number": 515,
        "Semi-Major Axis(m)": 7083131.272910544,
        "Time(s)": 169
    },
    {
        "Altitude(m)": 702760.7893344436,
        "Argument of Periapsis(deg)": 0.010191161061718957,
        "Eccentricity": 0.0,
        "Inclination(deg)": 45.0,
        "Latitude(deg)": 15.662921975716781,
        "Longitude(deg)": 178.11738418447382,
        "Mean Anomaly(deg)": 157.59189384248282,
        "RAAN(deg)": 114.99037984185318,
        "Satellite Name": "Constellation 1 515",
        "Satellite Number": 515,
        "Semi-Major Axis(m)": 7083131.272910544,
        "Time(s)": 170
    }
]